naam,stadsdeel,straat,huisnr,postcode,lat,long
HOTEL NOTTING HILL,Centrum,WESTEINDE,26,1017ZP,52.3583958,4.8987243
COCOMAMA,Centrum,WESTEINDE,18,1017ZP,52.3587349,4.8986504
ASTERISK HOTEL,Centrum,DEN TEXSTRAAT,16,1017ZA,52.3588053,4.8939374
NICOLAAS WITSEN HOTEL,Centrum,NICOLAAS WITSENSTRAAT,4-8,1017ZH,52.3589554,4.8961021
KAP HOTEL,Centrum,DEN TEXSTRAAT,5B,1017XW,52.3589926,4.8936123
IRIS HOTEL,Centrum,SARPHATIKADE,17,1017WV,52.3590573,4.9027278
V FREDERIKSPLEIN- HOTEL,Centrum,WETERINGSCHANS,136,1017XV,52.3591647,4.898015
Hotel V Lofts,Centrum,Weteringschans,138,1018XV,52.3591885,4.8980272
SPHINX HOTEL EUROPE,Centrum,WETERINGSCHANS,82,1017XR,52.359354,4.8940634
THE CANAL-HOTEL (AMSTEL HOSPITALITY GROUP),Centrum,WETERINGSCHANS,253,1017XJ,52.3594698,4.8959558
AMSTEL INTERCONTINENTAL AMSTERDAM,Centrum,PROFESSOR TULPPLEIN,1,1018GX,52.3599971,4.9051748
Art Bed Breakfast,Centrum,Weteringschans,123,1017SC,52.360267,4.888714
EUPHEMIA BUDGET HOTEL,Centrum,FOKKE SIMONSZSTRAAT,1-9,1017TD,52.3606185,4.8916315
FREDERIK PARK HOUSE HOTEL,Centrum,FREDERIKSPLEIN,22,1017XM,52.360929,4.8983203
MERCURE AMSTERDAM ARTHUR FROMMER,Centrum,NOORDERSTRAAT,46,1017TV,52.3609658,4.8935078
HEMP HOTEL/EETCAFE AMSTERDAM,Centrum,FREDERIKSPLEIN,15,1017XK,52.3612764,4.9001945
MUNCK HOTEL-DE,Centrum,ACHTERGRACHT,3,1017WL,52.361417,4.9008205
ART GALLERY HOTEL,Centrum,WETERINGSCHANS,67,1017RX,52.3615491,4.8860914
HOTEL DWARS,Centrum,UTRECHTSEDWARSSTRAAT,79,1017WD,52.3616743,4.8996273
SARPHATI SUITES,Centrum,SARPHATISTRAAT,113,1018GB,52.3617133,4.9103716
LE TISSERAND CHAMBRES D'HOTES,Centrum,2E WETERINGDWAARSSTRAAT,5,1017SR,52.3617352,4.8875039
ALLURE HOTEL,Centrum,SARPHATISTRAAT,117,1018GB,52.361886,4.9104768
TOWNHOUSE HOTEL- THE,Centrum,PRINSENGRACHT,816,1017JL,52.3620087,4.8996453
PRINSENHOF HOTEL,Centrum,PRINSENGRACHT,810,1017JL,52.3620373,4.899428
PRINSENGRACHT HOTEL,Centrum,PRINSENGRACHT,1015-1017,1017KN,52.3620829,4.8944654
Prinsenhuis,Centrum,Prinsengracht,967,1017KL,52.3623039,4.892702
ITC HOTEL,Centrum,PRINSENGRACHT,1051,1017JE,52.362324,4.8984425
ORLANDO HOTEL,Centrum,PRINSENGRACHT,1099,1017JH,52.3625639,4.9005365
BRIDGE HOTEL-THE,Centrum,AMSTEL,107-111,1018EM,52.3626834,4.9037159
ROOKIES- HOTEL THE,Centrum,KORTE LEIDSEDWARSSTRAAT,147,1017PZ,52.3629254,4.8853061
KEIZERSGRACHT APARTMENTS,Centrum,KEIZERSGRACHT,760,1017EZ,52.363478,4.8980276
MOZART HOTEL,Centrum,PRINSENGRACHT,518-520,1017KJ,52.3635095,4.8862507
HANS BRINKER HOTEL,Centrum,KERKSTRAAT,136-138,1017GR,52.3635246,4.8880442
AMSTERDAM HOSTEL CENTRE,Centrum,LEIDSEKRUISSTRAAT,13,1017RE,52.3636675,4.8853534
KEIZERSHOF HOTEL,Centrum,KEIZERSGRACHT,618,1017ER,52.3637459,4.8906173
ORFEO HOTEL,Centrum,LEIDSEKRUISSTRAAT,14,1017RH,52.3637658,4.8852201
SEVEN BRIDGES HOTEL,Centrum,REGULIERSGRACHT,31,1017LK,52.3638415,4.8963154
AMSTERDAM AMERICAN HOTEL - HAMPSHIRE EDEN,Centrum,LEIDSEKADE,97,1017PN,52.3639448,4.8812855
LEIDSESQUARE LUXURY SUITES,Centrum,LEIDSEPLEIN,13-17,1017PS,52.3639596,4.8834004
LEIDSEPLEIN HOTEL-HET,Centrum,KORTE LEIDSEDWARSSTRAAT,79,1017PW,52.3639827,4.8838908
ARMADA CANALVIEW HOTEL,Centrum,KEIZERSGRACHT,713-715,1017DX,52.3640927,4.8984282
DEUTSCHES SEEMANNNSHEIM- STICHTING,Centrum,KEIZERSGRACHT,733,1017DZ,52.3643126,4.8993232
QUENTIN HOTEL AMSTERDAM-THE,Centrum,LEIDSEKADE,89,1017PN,52.3643457,4.8798842
POSTE HOTEL-DE LA,Centrum,REGULIERSGRACHT,3-5,1017LJ,52.3644666,4.8961987
KING HOTEL,Centrum,LEIDSEKADE,85-86,1017PN,52.3644795,4.8797504
HERMITAGE AMSTERDAM HOTEL,Centrum,NIEUWE KEIZERSGRACHT,16,1018DR,52.364543,4.9035195
LA BOHEME HOTEL,Centrum,MARNIXSTRAAT,415,1017PK,52.364557,4.8810709
ADOLESCE HOTEL,Centrum,NIEUWE KEIZERSGRACHT,26,1018DS,52.3646344,4.9038855
SYNOPSIS HOTEL,Centrum,NIEUWE KEIZERSGRACHT,22A,1018DS,52.3646605,4.9037286
KOOYK HOTEL,Centrum,LEIDSEKADE,81-83,1017PM,52.3646952,4.879748
SASHA B&B AMSTERDAM CITY CENTER,Centrum,VIJZELSTRAAT,71,1017HG,52.36478,4.8927976
SEVEN ONE SEVEN,Centrum,PRINSENGRACHT,717,1017JW,52.3648078,4.8853962
BOUTIQUE VIEW HOTEL,Centrum,LEIDSEKADE,77,1017PM,52.3648574,4.8798636
FREELAND HOTEL,Centrum,MARNIXSTRAAT,386,1017PL,52.3648862,4.8802743
TITUS HOTEL,Centrum,LEIDSEKADE,74,1017PM,52.3649572,4.880068
WEBER HOTEL,Centrum,MARNIXSTRAAT,397,1017PJ,52.3649685,4.8806111
DIKKER & THIJS HOTEL,Centrum,PRINSENGRACHT,444,1017KE,52.365009,4.8839247
VETERAN-THE,Centrum,HERENGRACHT,561,1017BW,52.3650494,4.8955417
ADMIRAAL HOTEL-DE,Centrum,HERENGRACHT,563,1017CD,52.3650774,4.8962331
THORBECKE APPARTMENTS,Centrum,THORBECKEPLEIN,13,1017CS,52.3651363,4.8959949
LANTAERNE LEIDSEKADE-HOTEL DE,Centrum,LEIDSEGRACHT,111-117,1017ND,52.3652208,4.8807256
BARBACAN HOTEL,Centrum,PLANTAGE MUIDERGRACHT,89,1018TN,52.3652604,4.9119978
IMPERIAL HOTEL,Centrum,THORBECKEPLEIN,9,1017CS,52.3652862,4.896167
ACOSTAR HOTEL,Centrum,KERKSTRAAT,45-49,1017GB,52.365305,4.8857753
STERN- HOTEL DE,Centrum,UTRECHTSESTRAAT,18,1017VN,52.365403,4.8975462
BANKS MANSION,Centrum,HERENGRACHT,519-525,1017BV,52.3654256,4.8932463
MARNIX HOTEL,Centrum,MARNIXSTRAAT,382,1016XX,52.3654686,4.8798713
BACKSTAGE HOTEL,Centrum,LEIDSEGRACHT,114,1016CT,52.3654912,4.8802689
THORBECKE HOTEL,Centrum,THORBECKEPLEIN,3 + 13,1017CS,52.365501,4.8960799
AMISTAD HOTEL,Centrum,KERKSTRAAT,42,1017GM,52.3655729,4.884935
REMBRANDT SQUARE HOTEL,Centrum,REMBRANDTPLEIN,24,1016BJ,52.3656552,4.8964012
SCHILLER HOTEL- NH,Centrum,REMBRANDTPLEIN,26-36,1017CV,52.3656644,4.8964745
GOLDEN BEAR GAY HOTEL-THE,Centrum,KERKSTRAAT,37,1017GB,52.3656743,4.8852433
PARIS HOTEL-DE,Centrum,MARNIXSTRAAT,372-374,1016XX,52.3657467,4.8797506
CITY HOTEL UTRECHTSESTRAAT,Centrum,UTRECHTSESTRAAT,2,1017VN,52.3657711,4.8974482
THE ALBUS,Centrum,VIJZELSTRAAT,49,1017HE,52.3657861,4.8933273
HAMPSHIRE HOTEL LANCASTER,Centrum,PLANTAGE MIDDENLAAN,48,1018DH,52.3657906,4.9128562
DOWNTOWN HOTEL,Centrum,KERKSTRAAT,25,1017GA,52.3658929,4.8849509
ATLANTA HOTEL,Centrum,REMBRANDTPLEIN,8,1017CV,52.365966,4.8955022
CANAL VIEW APARTMENTS LEX,Centrum,LEIDSEGRACHT,74,1016CR,52.3660703,4.8821341
CENTRAAL HOSTEL,Centrum,PLANTAGE KERKLAAN,19,1018SZ,52.3661154,4.9114737
INTERNATIONAL BUDGET HOSTEL,Centrum,LEIDSEGRACHT,76,1016CR,52.3661565,4.8819061
EDEN REMBRANDT SQUARE HOTEL,Centrum,AMSTELSTRAAT,17,1017DA,52.3663466,4.8985764
ALFA PLANTAGE HOTEL,Centrum,PLANTAGE MIDDENLAAN,26,1018DE,52.3663986,4.911323
NH CARLTON AMSTERDAM,Centrum,VIJZELSTRAAT,4,1017HK,52.3664202,4.892983
CARANSA HOTEL-NH,Centrum,REMBRANDTPLEIN,19,1017CT,52.3665541,4.8969688
PLANTAGE HOTEL,Centrum,PLANTAGE KERKLAAN,25,1018CV,52.3666344,4.9117188
HORTUS HOTEL,Centrum,PLANTAGE PARKLAAN,8,1018SR,52.3667565,4.9091105
EDEN HOTEL AMSTERDAM,Centrum,AMSTEL,144,1017AE,52.3668101,4.8986768
MONOPOLE HOTEL & APARTMENTS,Centrum,AMSTEL,60,1017AC,52.3668318,4.8961344
AMSTELZICHT HOTEL,Centrum,AMSTEL,104,1017AD,52.3669696,4.8969299
REMBRANDT HOTEL,Centrum,PLANTAGE MIDDENLAAN,17,1018DA,52.367121,4.9102988
LEYDSCHE HOF HOTEL-DE,Centrum,LEIDSEGRACHT,14,1016CK,52.3674262,4.8857954
AGORA HOTEL,Centrum,SINGEL,462,1017AW,52.3675023,4.8889219
WATERFRONT HOTEL,Centrum,SINGEL,458,1017AW,52.3675759,4.8887196
EUROPE HOTEL-DE L',Centrum,NIEUWE DOELENSTRAAT,2-8,1012CP,52.3676686,4.894294
PARKLANE HOTEL,Centrum,PLANTAGE PARKLAAN,16,1018ST,52.3677285,4.9099152
AMSTERDAM HOUSE HOTEL EUREKA,Centrum,'S GRAVELANDSEVEER,3-4,1011KM,52.3677855,4.8964511
ANDAZ AMSTERDAM PRINSENGRACHT HOTEL,Centrum,PRINSENGRACHT,587,1016HT,52.3678069,4.8830768
RESIDENCE LE COIN HOTEL,Centrum,NIEUWE DOELENSTRAAT,5,1012CP,52.3678935,4.8943819
NES HOTEL,Centrum,KLOVENIERSBURGWAL,137-139,1011KE,52.3679558,4.8963464
DES ARTS HOTEL,Centrum,ROKIN,154-156,1012LE,52.3679861,4.892375
DOELEN HOTEL-NH,Centrum,NIEUWE DOELENSTRAAT,24,1012CP,52.3681919,4.8957609
LOOIER HOTEL-DE,Centrum,DERDE LOOIERSDWARSSTRAAT,75,1016VD,52.3683471,4.8797053
REMBRANDTPLEIN HOTEL,Centrum,GROENBURGWAL,27,1011HR,52.3689808,4.8986109
STAYOKAY AMSTERDAM STADSDOELEN,Centrum,KLOVENIERSBURGWAL,97,1011KB,52.3689859,4.8974802
AMSTERDAM WIECHMANN HOTEL,Centrum,PRINSENGRACHT,328-332,1016HX,52.3690559,4.882253
AJAX HOTEL D.R.,Centrum,ROKIN,104,1012KZ,52.3692818,4.8917765
DYLAN- THE,Centrum,KEIZERSGRACHT,384,1016GB,52.3692905,4.8840144
AMBASSADE HOTEL,Centrum,HERENGRACHT,341,1016AZ,52.3693824,4.8871682
HOTEL AMBASSADE,Centrum,HERENGRACHT,335-353,1016AX,52.3695352,4.8871812
CITY CENTRE-NH,Centrum,SPUISTRAAT,288-292,1012VX,52.3698899,4.8886496
LA FESTA BED & BREAKFAST,Centrum,HAZENSTRAAT,64,1016SR,52.3699241,4.8803388
FALCON PLAZA HOTEL,Centrum,VALKENBURGERSTRAAT,72,1011LZ,52.369959,4.9073949
IBIS AMSTERDAM CITY STOPERA,Centrum,VALKENBURGERSTRAAT,68,1011LZ,52.370082,4.9075466
OLD CITY AMSTERDAM B&B,Centrum,PIETER JACOBSZOONDWARSSTRAAT,7-11,1012HK,52.3702157,4.8951679
TOURIST-INN HOTEL,Centrum,SPUISTRAAT  + SINGLE 69,52,1012TV,52.3702157,4.8951679
SAILING HOME HOTELSCHIP,Centrum,OOSTERDOK,T.O. NEMO,1011VC,52.3702157,4.8951679
B&B BROUWERSGR8,Centrum,BROUWERSGRACHT,8-II,1013GW,52.3702157,4.8951679
HOKSBERGEN HOTEL,Centrum,SINGEL,301,1012WH,52.370231,4.8874713
DIMILLION SUITE HOTEL,Centrum,OUDESCHANS,73-77,1011KW,52.3702583,4.9032956
RADISSON BLU HOTEL,Centrum,RUSLAND,17,1012CK,52.3702895,4.8966884
ESTHEREA HOTEL,Centrum,SINGEL,303-309,1012WJ,52.3705438,4.888745
ROKIN HOTEL,Centrum,ROKIN,73,1012KL,52.3706388,4.8931175
CORDIAL HOTEL,Centrum,ROKIN,62-64,1012KW,52.37072,4.892299
SOFITEL LEGEND THE GRAND AMSTERDAM,Centrum,OUDEZIJDS VOORBURGWAL,197,1012EX,52.3708351,4.895403
HOTEL V NESPLEIN,Centrum,NES,49,1012KD,52.3709705,4.893682
NOVA HOTEL,Centrum,NIEUWEZIJDS VOORBURGWAL,276-278,1012RS,52.3712733,4.8901277
DAM CITY ACCOMMODATION,Centrum,OUDE HOOGSTRAAT,7A-B,1012CD,52.3714158,4.8973842
HEGRA HOTEL,Centrum,HERENGRACHT,269,1016BJ,52.3714175,4.8874079
MISC EATDRINKSLEEP,Centrum,KLOVENIERSBURGWAL,20,1012CV,52.3717417,4.8990357
REMBRANDT CLASSIC HOTEL,Centrum,HERENGRACHT,255,1016BJ,52.3718788,4.8875351
CENTRAL STATION HOSTEL,Centrum,STEENHOUWERSSTEEG,3,1012HJ,52.371958,4.8948337
M.DE VRIES- B&B,Centrum,OUDEZIJDS ACHTERBURGWAL,134,1012DV,52.3720174,4.8972829
RHO HOTEL,Centrum,NES,5-23,1012KC,52.3721118,4.8939844
GERSTEKORREL HOTEL-DE,Centrum,DAMSTRAAT,22,1012JM,52.3721946,4.8947511
BELGA HOTEL,Centrum,HARTENSTRAAT,8,1016CB,52.3723038,4.8863518
HART VAN AMSTERDAM HOTEL,Centrum,OUDEZIJDS ACHTERBURGWAL,120,1012DT,52.3723106,4.8974876
DORIA HOTEL,Centrum,DAMSTRAAT,3,1012JL,52.3724471,4.8944755
SHELTER CITY JEUGDHOTEL,Centrum,BARNDESTEEG,21,1012BV,52.3724505,4.8991969
BULLDOG HOTEL-THE,Centrum,OUDEZIJDS VOORBURGWAL,220,1012GJ,52.3725304,4.8963105
TORENZICHT HOTEL,Centrum,OUDEZIJDS ACHTERBURGWAL,93,1012DD,52.3725331,4.8982537
GRAND HOTEL KRASNAPOLSKY NH,Centrum,DAM,9,1012JS,52.3725878,4.8947802
83 HOTEL,Centrum,OUDEZIJDS ACHTERBURGWAL,83,1012DC,52.3727595,4.8983909
PULITZER HOTEL- A LUXURY COLLECTION HOTEL,Centrum,PRINSENGRACHT,315-331,1016GZ,52.3730331,4.8833384
SHELTER JORDAN CHRISTIAN HOSTEL,Centrum,BLOEMSTRAAT,179,1016LA,52.3731509,4.8772577
IJ-BOULEVARD HOTEL,Centrum,PRINS HENDRIKKADE,144-145,1011AT,52.3732463,4.9065083
DI-ANN HOTEL,Centrum,RAADHUISSTRAAT,27,1016DC,52.3733216,4.8864392
SHARM HOTEL,Centrum,RAADHUISSTRAAT,33,1016DC,52.3734318,4.886213
WESTERTOREN HOTEL-DE,Centrum,RAADHUISSTRAAT,35,1016DC,52.3734584,4.8861393
SUNHEAD OF 1617,Centrum,HERENGRACHT,152,1016BN,52.3734907,4.886899
ASPEN HOTEL,Centrum,RAADHUISSTRAAT,31,1016DC,52.3734956,4.8863587
PAX HOTEL,Centrum,RAADHUISSTRAAT,37B,1016DC,52.3735029,4.8860359
ROYAL TASTE HOTEL,Centrum,OUDEZIJDS ACHTERBURGWAL,47,1012DB,52.37351,4.8993084
SWISSOTEL AMSTERDAM,Centrum,DAMRAK,96,1012LP,52.3736098,4.893345
GALERIJ HOTEL,Centrum,RAADHUISSTRAAT,43,1016DD,52.37361,4.8858436
NADIA HOTEL (INCL. CLEMENS HOTEL),Centrum,RAADHUISSTRAAT,49-53,1016DD,52.373744,4.8856509
AMSTERDAM-DE ROODE LEEUW HOTEL,Centrum,DAMRAK,93-94,1012LP,52.3737575,4.8936098
WINSTON HOTEL,Centrum,WARMOESSTRAAT,129,1012JA,52.3739147,4.8963539
IRISH PUB DURTY NELLY'S INN,Centrum,WARMOESSTRAAT,115-117,1012JA,52.3740681,4.896499
PORT VAN CLEVE-DIE,Centrum,NIEUWEZIJDS VOORBURGWAL,176-180,1012SJ,52.3740749,4.8906242
ANCO HOTEL,Centrum,OUDEZIJDS VOORBURGWAL,55,1012EJ,52.3742592,4.8992577
CORNER HOUSE HOTEL,Centrum,NIEUWEZIJDS VOORBURGWAL,121,1012RH,52.3742813,4.8915919
BEST WESTERN DAM SQUARE INN,Centrum,GRAVENSTRAAT,12-16,1012NM,52.3743377,4.8925387
GRAND HOTEL AMR?TH AMSTERDAM,Centrum,PRINS HENDRIKKADE,108,1011AK,52.3744148,4.9041442
SHENZHOU BED & BREAKFAST,Centrum,GELDERSEKADE,75,1011EL,52.3745198,4.9018179
MEVLANA HOTEL,Centrum,NIEUWEZIJDS VOORBURGWAL,160,1012SJ,52.3745223,4.8910621
WITTE TULP HOTEL-DE,Centrum,WARMOESSTRAAT,87,1012HZ,52.3747097,4.8973583
TRAVEL HOTEL,Centrum,BEURSSTRAAT,23,1012JV,52.3747712,4.8968621
VAN ONNA HOTEL,Centrum,BLOEMGRACHT,102-108,1015TN,52.3747979,4.8800872
CROWN HOTEL-THE,Centrum,OUDEZIJDS VOORBURGWAL,21,1012EH,52.3748462,4.8999267
BEN HOTEL,Centrum,BEURSSTRAAT,21,1012JT,52.3748522,4.8967836
TAMARA HOTEL,Centrum,NIEUWEZIJDS VOORBURGWAL,144,1012SJ,52.3748647,4.8913945
CROYDON HOTEL,Centrum,WARMOESSTRAAT,75,1012HX,52.374953,4.8977427
DAMRAK INN HOTEL,Centrum,DAMRAK,58,1012LL,52.3750067,4.8956121
TULIP INN AMSTERDAM CENTRE,Centrum,BEURSSTRAAT,11-19,1012JT,52.3750151,4.8970428
VIJAYA HOTEL,Centrum,OUDEZIJDS VOORBURGWAL,44,1012GE,52.3750266,4.8991834
BEURSSTRAAT HOTEL,Centrum,BEURSSTRAAT,7-9,1012JT,52.3750879,4.8971925
UTOPIA,Centrum,NIEUWEZIJDS VOORBURGWAL,132,1012SH,52.3750993,4.8916121
FRISCO INN HOTEL,Centrum,BEURSSTRAAT,5,1012JT,52.3751258,4.8972494
'T HOTEL LILY,Centrum,LELIEGRACHT,18,1015DE,52.3751614,4.8871471
GLOBE- HOTEL DE,Centrum,OUDEZIJDS VOORBURGWAL,3,1012EH,52.3751743,4.9003183
GREENHOUSE HOTEL,Centrum,WARMOESSTRAAT,55,1012HW,52.3753388,4.8981477
HOTEL THE EXCHANGE,Centrum,DAMRAK,49-51,1012LL,52.3754655,4.895596
THE TIMES HOTEL,Centrum,HERENGRACHT,137,1015BG,52.3754906,4.8888929
CONVENT HOTEL AMSTERDAM- THE,Centrum,NIEUWEZIJDS VOORBURGWAL,67,1012RE,52.3754926,4.8929878
MANOFA HOTEL,Centrum,DAMRAK,46-48,1012LL,52.3755738,4.8957289
CC HOTEL,Centrum,WARMOESSTRAAT,40-42,1012JE,52.3756506,4.8983736
CITADEL HOTEL,Centrum,NIEUWEZIJDS VOORBURGWAL,98-100,1012SG,52.3756718,4.8923191
DELTA HOTEL,Centrum,DAMRAK,42-43,1012LK,52.3757338,4.8958794
BOB'S YOUTH HOSTEL,Centrum,NIEUWEZIJDS VOORBURGWAL,92,1012SG,52.375801,4.892526
CONTINENTAL HOTEL,Centrum,DAMRAK,40-41,1012LK,52.3758094,4.8961385
OLD HARBOUR HOTEL,Centrum,WARMOESSTRAAT,23,1012HT,52.3758483,4.8988796
OLD QUARTER HOTEL,Centrum,WARMOESSTRAAT,22,1012JD,52.3759114,4.8988724
MAURO MANSION,Centrum,GELDERSEKADE,16,1012BH,52.3759233,4.9017653
IL GIARDINO HOTEL,Centrum,PRINS HENDRIKKADE,97-98,1011AG,52.3759276,4.9028373
FLORIS FRANCE HOTEL,Centrum,OUDEZIJDS KOLK,11,1012AL,52.3759301,4.9012365
TOREN HOTEL,Centrum,KEIZERSGRACHT,164,1015CZ,52.3759309,4.8858199
VOYAGERS HOTEL,Centrum,GELDERSEKADE,2,1012BH,52.3759616,4.9025628
SCHAGEN HOTEL,Centrum,NIEUWEBRUGSTEEG,19,1012AG,52.375988,4.9000317
EAZIRES LUXER HOTEL,Centrum,WARMOESSTRAAT,11,1012HT,52.3760297,4.8992235
INNTEL HOTELS AMSTERDAM CENTRE,Centrum,NIEUWEZIJDS KOLK,19,1012PV,52.3760456,4.8943918
VAN GELDER HOTEL,Centrum,DAMRAK,34,1012LK,52.3760464,4.8963499
MEETING POINT HOSTEL,Centrum,WARMOESSTRAAT,14,1012JD,52.3760921,4.89912
ORANJE TULP,Centrum,DAMRAK,32,1012LK,52.3761014,4.8965023
MALLE MOOLEN HOTEL-DE,Centrum,WARMOESSTRAAT,7,1012HT,52.3761022,4.8993696
KOOPERMOOLEN HOTEL-DE,Centrum,WARMOESSTRAAT,5,1012HT,52.3761295,4.8994574
DAMHOTEL,Centrum,DAMRAK,31,1012LJ,52.3761505,4.8965487
CANAL HOUSE,Centrum,KEIZERSGRACHT,148,1015CX,52.3762634,4.886327
BROUWER HOTEL,Centrum,SINGEL,83-85,1012VE,52.3762861,4.891731
OLD NICKEL HOTEL-THE,Centrum,NIEUWEBRUGSTEEG,11,1012AG,52.3763099,4.8996169
BARBIZON PALACE-NH,Centrum,PRINS HENDRIKKADE,59-72,1012AD,52.3763752,4.900189
BRIAN HOTEL,Centrum,SINGEL,69,1012VE,52.3765209,4.8919781
PRINS HENDRIK HOTEL,Centrum,PRINS HENDRIKKADE,52-58,1012AC,52.3765223,4.8995137
WESTCORD CITY CENTRE HOTEL AMSTERDAM,Centrum,NIEUWEZIJDS VOORBURGWAL,50,1012SC,52.3765599,4.893529
AVENUE HOTEL AMSTERDAM,Centrum,NIEUWEZIJDS VOORBURGWAL,33,1012RD,52.3766418,4.8946502
FLYING PIG DOWNTOWN HOSTEL-THE,Centrum,NIEUWENDIJK,100,1012MR,52.376724,4.8962113
DOUBLETREE BY HILTON AMSTERDAM CENTRAL STATION,Centrum,OOSTERDOKSSTRAAT,4,1011DK,52.3768547,4.9045578
NEUTRAAL HOTEL,Centrum,DAMRAK,8,1012LG,52.3769187,4.8976056
PARK PLAZA VICTORIA AMSTERDAM HOTEL,Centrum,DAMRAK,1-5,1012LG,52.3770823,4.8978958
CROWNE PLAZA AMSTERDAM CITY CENTRE,Centrum,NIEUWEZIJDS VOORBURGWAL,5,1012RC,52.3772181,4.8957932
AIVENGO YOUTH HOSTEL,Centrum,SPUISTRAAT,6,1012TS,52.3772438,4.8939481
SINT NICOLAAS HOTEL,Centrum,SPUISTRAAT,1A,1012SP,52.3775049,4.8951808
JIMMY HOTEL,Centrum,MARTELAARSGRACHT,15,1012TN,52.3777433,4.8962787
Art'Otel Amsterdam,Centrum,Prins Hendrikkade,33,1012TM,52.3777464,4.8970605
SINGEL HOTEL,Centrum,SINGEL,13-17,1012VC,52.3777497,4.8934067
RENAISSANCE AMSTERDAM HOTEL,Centrum,KATTENGAT,1,1012SZ,52.3779368,4.894735
SEASON STAR HOTEL,Centrum,MARTELAARSGRACHT,18,1012TR,52.3780853,4.8961552
ALFA AMSTERDAM HOTEL,Centrum,MARTELAARSGRACHT,14,1012TR,52.378108,4.8962928
BELLEVUE HOTEL,Centrum,MARTELAARSGRACHT,10,1012TP,52.3781288,4.8964608
LIBERTY HOTEL,Centrum,SINGEL,5,1012VC,52.3782474,4.8938983
WEST VIOLET B&B,Centrum,VIOLETTENSTRAAT,4,1015NP,52.3784155,4.8848918
A-TRAIN HOTEL,Centrum,PRINS HENDRIKKADE,23,1012TM,52.3784389,4.8962961
AROZA HOSTEL,Centrum,NIEUWENDIJK,23,1012LZ,52.3784626,4.8953735
GROENENDAEL HOTEL,Centrum,NIEUWENDIJK,15,1012LZ,52.3786464,4.8952452
HOTEL PLANT,Centrum,PRINS HENDRIKKADE,15,1012TL,52.3787482,4.8956538
MULTATULI HOTEL,Centrum,PRINS HENDRIKKADE,12,1012TL,52.3788468,4.8955327
CHIC AND BASIC,Centrum,HERENGRACHT,13,1015BA,52.3788563,4.892198
SEBASTIAN'S HOTEL,Centrum,KEIZERSGRACHT,15-17,1015CC,52.3790973,4.8900022
ACACIA HOTEL,Centrum,LINDENGRACHT,251,1015KH,52.3794022,4.8804903
IBIS AMSTERDAM CENTRE,Centrum,STATIONSPLEIN,49,1012AB,52.379707,4.8971376
REGAL HOTEL-THE,Centrum,BINNEN WIERINGERSTRAAT,7,1013EA,52.3798013,4.8926134
POSTHOORN B&B,Centrum,PRINSENGRACHT,7,1015DK,52.3799556,4.8882675
QUENTIN ARRIVE HOTEL,Centrum,HAARLEMMERSTRAAT,65-67,1013EL,52.3799921,4.8925976
MY HOME HOTEL,Centrum,HAARLEMMERSTRAAT,82,1013EV,52.3805313,4.8915524
ART HOTEL DULAC,Centrum,HAARLEMMERSTRAAT,120,1013EX,52.3808957,4.8903861
SCHRODER HOTEL,Centrum,HAARLEMMERDIJK,48B,1013JE,52.3822837,4.8881096
BLOEIENDE RAMENAS- HOTEL CAFE,Centrum,HAARLEMMERDIJK,61,1013KB,52.3823622,4.8874605
Hotel Room Mate Aitana,Centrum,IJDok,6,1013MM,52.3842356,4.8949157
CITY HOTEL AMSTERDAM,Centrum,PRINS HENDRIKKADE,130,1011AP,52.3738978,4.9053705
INTERNATIONAAL DELPORT BV- HOTEL,Centrum,WARMOESSTRAAT,1-3,1012HT,52.3762243,4.8995427
COSMOS AMSTERDAM HOTEL,Centrum,NIEUWE NIEUWSTRAAT,17,1012NG,52.375317,4.8934963
IL FIORE BED & BREAKFAST,Centrum,LINDENGRACHT,25-1,1015KB,52.3804787,4.8870183
BASTION HOTEL AMSTERDAM AMSTEL,Nieuw-West,VERL VAN MARWIJK KOOYSTRAAT,30,1096BX,52.3336823,4.9276477
MERCURE AMSTERDAM AIRPORT,Nieuw-West,OUDE HAAGSEWEG,20,1066BW,52.33718,4.8165916
ARTEMIS HOTEL,Nieuw-West,JOHN M.KEYNESPLEIN,2,1066EP,52.3417894,4.824952
WEST SIDE INN HOTEL,Nieuw-West,VOORBURGSTRAAT,250,1059VD,52.3487298,4.8426521
BASTION HOTEL AMSTERDAM CENTRUM,Nieuw-West,HENDRIKJE STOFFELSSTRAAT,60,1058GC,52.3574077,4.8435285
WESTCORD FASHION HOTEL AMSTERDAM,Nieuw-West,HENDRIKJE STOFFELSTRAAT,1,1058GC,52.3574264,4.8445321
BASTION HOTEL AMSTERDAM CENTRUM/Z.W.,Nieuw-West,NACHTWACHTLAAN,11,1058EV,52.3575334,4.8436303
CENTRE HOTEL,Nieuw-West,NICOLAAS ANSLIJNSTRAAT,87,1068WS,52.3576522,4.8080457
REMCO HOTEL,Nieuw-West,REIMERSWAALSTRAAT,5,1069AE,52.3624309,4.7947556
RAMADA APOLLO AMSTERDAM CENTRE,Nieuw-West,STAALMEESTERSLAAN,410,1057PH,52.3681227,4.8440078
BEST WESTERN BLUE SQUARE HOTEL,Nieuw-West,SLOTERMEERLAAN,80,1064HD,52.3786823,4.8207833
NIEUW SLOTANIA HOTEL,Nieuw-West,SLOTERMEERLAAN,133,1063JN,52.3810887,4.8207379
AMSTERDAM IDENTITY APARTMENTS,Nieuw-West,BARAJASWEG,10-,1043CP,52.3871132,4.8338463
HOLIDAY INN EXPRESS AMSTERDAM SLOTERDIJK STATION,Nieuw-West,ZAVENTEMWEG,3,1043EH,52.3884378,4.8376426
MEININGER AMSTERDAM CITY WEST,Nieuw-West,ORLYPLEIN,1-67,1043DR,52.3906518,4.8374803
AMSTEL BOTEL,Noord,NDSM PIER3-4 TEGENOVER C.S.,,1033RG,52.3702157,4.8951679
OUDE TAVEERNE-DE- Hotel-Restaurant,Noord,DURGERDAMMERDIJK,73,1026CB,52.3774518,4.9886161
Isis Hotel,Noord,Spreeuwenpark,17,1021GS,52.3842301,4.9134103
NH GALAXY,Noord,DISTELKADE,21,1031XP,52.3923684,4.9110442
ZWAAN HOTEL-DE,Noord,DORPSWEG RANSDORP,70,1028BR,52.3935677,4.9943183
BASTION HOTEL AMSTERDAM CENTRUM-NOORD,Noord,RODE KRUISSTRAAT,28,1025KN,52.3961011,4.9286379
Faralda NDSM Kraanhotel Amsterdam,Noord,NDSM-plein,78,1033WB,52.3993864,4.8948412
Brooklyn hotel,Noord,NDSM - Plein,28,1033WB,52.4001978,4.8936893
KWINT-B&B,Noord,KOMETENSINGEL,187,1033BE,52.4146317,4.8863048
MERCURE HOTEL AMSTERDAM CITY,Oost,JOAN MUYSKENWEG,10,1096CJ,52.3351821,4.9138687
CASA 400 AMSTERDAM HOTEL,Oost,1E RINGDIJKSTRAAT,4,1097BC,52.3499067,4.9184978
EDEN AMSTERDAM MANOR HOTEL,Oost,LINNAEUSSTRAAT,89,1093EK,52.3591348,4.9263433
AMSTERDAM OOSTERPARK INN,Oost,OOSTERPARK,71,1092AS,52.3594007,4.9227653
OOSTERPARK HOTEL,Oost,OOSTERPARK,72,1092AS,52.3594357,4.9229086
EASTERN PARK APARTMENTS SUITES,Oost,WIJTTENBACHSTRAAT,30,1093JC,52.3604412,4.9268613
ARENA HOTEL,Oost,'S-GRAVESANDESTRAAT,51,1092AA,52.3612332,4.9163277
TROPEN HOTEL-NH,Oost,LINNAEUSSTRAAT,2C,1092CK,52.3617405,4.9226323
LA CORTE SCONTA,Oost,BRIGANTIJNKADE,20-,1086VB,52.3641505,4.9858801
STAYOKAY ZEEBURG,Oost,TIMORPLEIN,21,1094CC,52.3653585,4.9357897
IJ B&B,Oost,ZEEBURGERDIJK,17 HS,1093SK,52.3659914,4.9277059
LLOYD HOTEL & CULTURELE AMBASSADE,Oost,OOSTELIJKE HANDELSKADE,34,1019BN,52.3744,4.934781
MÖVENPICK HOTEL AMSTERDAM CITY CENTRE,Oost,PIET HEINKADE,11,1019BR,52.3781016,4.9142508
AMIGO BUDGET HOSTEL,Oost,LINNEAUSSTRAAT,199,1093EP,52.3565862,4.9276652
CONSCIOUS HOTEL VONDELPARK,West,OVERTOOM,519-521,1054LH,52.3578436,4.8565299
PARCK BED & BREAKFAST,West,OVERTOOM,251,1054HW,52.3608264,4.868108
STAYOKAY AMSTERDAM VONDELPARK,West,ZANDPAD,5,1054GA,52.3611829,4.8781924
SIPERMANN HOTEL,West,ROEMER VISSCHERSTRAAT,35,1054EW,52.3612317,4.8769102
PARKZICHT HOTEL,West,ROEMER VISSCHERSTRAAT,33,1054EW,52.3612591,4.8770126
FUSION SUITES,West,ROEMER VISSCHERSTRAAT,40,1054EZ,52.3612927,4.8766721
QUENTIN-ENGELAND HOTEL-THE,West,ROEMER VISSCHERSTRAAT,30,1054EZ,52.3615347,4.8770301
HESTIA HOTEL,West,ROEMER VISSCHERSTRAAT,7,1054EV,52.3615879,4.8782274
OWL HOTEL,West,ROEMER VISSCHERSTRAAT,1-3,1054EV,52.3617031,4.8785014
ROEMER HOTEL,West,ROEMER VISSCHERSTRAAT,8-10,1054EX,52.3617577,4.8780052
BLYSS HOTEL,West,VONDELSTRAAT,74,1054GN,52.3618837,4.875558
LEIDSE SQUARE HOTEL A'DAM- BEST WESTERN,West,TESSELSCHADESTRAAT,23,1054ET,52.3620794,4.8782684
ALEXANDER HOTEL,West,VONDELSTRAAT,44-46,1054GE,52.3623779,4.8771651
EUROPA 92 HOTEL,West,1E C HUYGENSSTR,103-105,1054BV,52.3624739,4.8756948
AMSTERDAM MARRIOTT HOTEL,West,STADHOUDERSKADE,12,1054ES,52.3624756,4.8798508
PRINSEN HOTEL,West,VONDELSTRAAT,36-38,1054GE,52.3625151,4.877656
VONDEL HOTEL,West,VONDELSTRAAT,26,1054GE,52.3626173,4.8779905
HOTEL ESPRESSO CITY CENTRE,West,OVERTOOM,57,1054HC,52.3627849,4.8765164
ABBA HOTEL,West,OVERTOOM,118-120,1054HM,52.362799,4.874552
PRINCESS HOTEL,West,OVERTOOM,80,1054HL,52.3629905,4.8754723
AMSTERDAM CENTRE-NH,West,STADHOUDERSKADE,7,1054ES,52.3630682,4.8794451
HOTEL IRON HORSE,West,OVERTOOM,33,1054HB,52.363117,4.8774875
HAMPSHIRE HOTEL - THEATRE DISTRICT AMSTERDAM,West,NASSAUKADE,387-390,1054AE,52.3641238,4.8783541
AMADI PARK HOTEL,West,1E C HUYGENSSTRAAT,26-G,1054BR,52.364962,4.873495
JUPITER HOTEL,West,TWEEDE HELMERSSTRAAT,14,1054CJ,52.3649758,4.8777578
CRYSTAL HOTEL,West,TWEEDE HELMERSSTRAAT,6,1054CH,52.3650296,4.8780998
D'AMSTERDAM HOTEL,West,TWEEDE HELMERSSTRAAT,4,1054CH,52.365075,4.878202
Grand Hotel Downtown,West,1e C Huygensstr,10A,1054BR,52.36513,4.8729422
NL HOTEL AMSTERDAM,West,NASSAUKADE,368,1054AB,52.365683,4.878073
LARENDE HOTEL,West,DE CLERCQSTRAAT,115,1053AJ,52.36983,4.8660264
ALP HOTEL,West,DE CLERCQSTRAAT,52,1052NH,52.3710069,4.869911
The Student Hotel Amsterdam,West,Jan van Galenstraat,335,1061AZ,52.3719163,4.836391
BLUE TOWER,West,LEEUWENDALERSWEG,21,1055JE,52.3792041,4.8457863
GOLDEN TULIP AMSTERDAM WEST,West,MOLENWERF,1,1014AG,52.385601,4.8470597
IBIS AMSTERDAM CITY WEST,West,TRANSFORMATORWEG,36,1014AK,52.3923418,4.8503
WESTCORD AMSTERDAM ART 3-STERREN,West,SPAARNDAMMERDIJK,302,1013ZX,52.392695,4.8688349
WESTCORD AMSTERDAM ART 4-STERREN,West,SPAARNDAMMERDIJK,302,1013ZX,52.392695,4.8688349
SANDTON HOTEL DE FILOSOOF,West,ANNA VAN DEN VONDELSTR,2-6,1054GZ,52.3608846,4.8694271
HOTEL MOSAIC,West,1E C HUYGENSSTRAAT,16-A,1054BR,52.3651758,4.8736688
HOLIDAY INN EXPRESS AMSTERDAM SOUTH,Zuid,ZWAANSVLIET,20,1081AP,52.3260817,4.8670649
NH MUSICA,Zuid,VAN LEIJENBERGHLAAN,221,1082GG,52.3266672,4.8800883
HTEL SERVICED APARTMENTS,Zuid,TEILINGEN,45,1082JP,52.3273621,4.8719157
ZUIVER / AMSTELPARK HOTEL,Zuid,KOENENKADE,8,1081KH,52.3311972,4.8531549
NOVOTEL AMSTERDAM CITY,Zuid,EUROPABOULEVARD,10,1083AD,52.333803,4.8884707
HOLIDAY INN AMSTERDAM,Zuid,DE BOELELAAN,2,1083HJ,52.3351951,4.8885354
CROWNE PLAZA AMSTERDAM - SOUTH,Zuid,GEORGE GERSHWINLAAN,101,1082MT,52.3357326,4.8743947
QBIC WTC AMSTERDAM,Zuid,STRAWINSKYLAAN,241,1077XX,52.3404968,4.8748007
CITIZENM HOTEL AMSTERDAM CITY,Zuid,PRINSES IRENESTRAAT,30,1077WX,52.3419432,4.8759604
VAN BONGA HOTEL-PENSION,Zuid,HOLBEINSTRAAT,1,1077VB,52.3463193,4.8754224
HOTEL VICTORIE,Zuid,VICTORIEPLEIN,42,1078PH,52.3468432,4.9028024
HAMPHSHIRE HOTEL BEETHOVEN,Zuid,BEETHOVENSTRAAT,43-51,1077HN,52.3482643,4.8773675
WYNDHAM APOLLO AMSTERDAM,Zuid,APOLLOLAAN,2,1077BA,52.3486098,4.8844292
OKURA HOTEL AMSTERDAM,Zuid,FERDINAND BOLSTRAAT,333,1072LH,52.3487635,4.8938828
FLIPPER HOTEL,Zuid,BORSSENBURGSTRAAT,5,1078VA,52.3488892,4.9086361
SAVOY HOTEL AMSTERDAM,Zuid,FERDINAND BOLSTRAAT,194,1072LW,52.3497431,4.8911908
APOLLOFIRST A HAMPSHIRE CLASSIC HOTEL,Zuid,APOLLOLAAN,123-125,1077AP,52.350396,4.8756404
DELPHI HOTEL,Zuid,APOLLOLAAN,103-105,1077AN,52.3504551,4.8768433
BILDERBERG GARDEN HOTEL,Zuid,DIJSSELHOFPLANTSOEN,7,1077BJ,52.3511447,4.8740764
HILTON AMSTERDAM HOTEL,Zuid,APOLLOLAAN,138,1077BG,52.351381,4.872723
EASYHOTEL AMSTERDAM,Zuid,VAN OSTADESTRAAT,97,1072ST,52.3522437,4.8916619
BICYCLE HOTEL,Zuid,VAN OSTADESTRAAT,123,1072SV,52.3525497,4.8936171
AADAM WILHELMINA HOTEL,Zuid,KONINGINNEWEG,169,1075CN,52.3527164,4.8617725
COLLEGE HOTEL- THE,Zuid,ROELOF HARTSTRAAT,1,1071VE,52.3527675,4.88373
BRONCKHORST HOTEL,Zuid,BRONCKHORSTSTRAAT,14,1071WR,52.3531405,4.8809599
PENSION DE BOER-VAN ESSEN,Zuid,JOHANNES VERHULSTSTRAAT,165,1075GX,52.353263,4.8676705
SARPHATI HOTEL,Zuid,SARPHATIPARK,58,1073CZ,52.3533645,4.8954516
MEMPHIS HOTEL,Zuid,DE LAIRESSESTRAAT,87,1071NX,52.3534713,4.8718474
AALBORG HOTEL,Zuid,SARPHATIPARK,106-108,1073EC,52.3536703,4.8975732
APPLE INN HOTEL,Zuid,KONINGINNEWEG,93,1075CJ,52.3537678,4.8656791
CENTRAL PARK HOTEL,Zuid,WALDECK PYRMONTLAAN,9,1075BT,52.3538935,4.8575459
CHICO'S GUESTHOUSE,Zuid,ST.WILLIBRORDUSSTRAAT,77,1073VA,52.3540824,4.9009688
SANDER HOTEL,Zuid,JACOB OBRECHTSTRAAT,69,1071KJ,52.3541225,4.8769479
MARIANNE HOTEL,Zuid,NICOLAAS MAESSTRAAT,107,1071PV,52.3541754,4.8787968
PARK PLAZA VONDELPARK,Zuid,KONINGINNEWEG,34-36,1075CZ,52.3542655,4.8664365
JANSON HOTEL,Zuid,FRANS VAN MIERISSTRAAT,69A,1071RL,52.3542868,4.8817165
SIR ALBERT HOTEL,Zuid,ALBERT CUYPSTRAAT,2-,1072CT,52.3545002,4.8875267
M-HOTEL MUSEUMPLEIN,Zuid,FRANS VAN MIERISSTRAAT,34,1071RT,52.354591,4.8825211
CONCERT HOTEL- THE,Zuid,DE LAIRESSESTRAAT,11,1071NR,52.3548331,4.8770718
WASHINGTON HOTEL,Zuid,FRANS VAN MIERISSTRAAT,10,1071RS,52.3549147,4.8835295
CONSCIOUS HOTEL MUSEUM SQUARE,Zuid,DE LAIRESSESTRAAT,5-7,1071NR,52.3549516,4.8774521
AMSTERDAM APARTMENTS ALEXANDER'S,Zuid,RUYSDAELKADE,109,1072AN,52.3550233,4.8871894
BEMA- HOTEL HUIZE,Zuid,CONCERTGEBOUWPLEIN,19B,1071LM,52.3552899,4.878675
HOTEL ATLANTIS AMSTERDAM,Zuid,CEINTUURBAAN,215-217,1074CV,52.3553692,4.9023463
ZANDBERGEN HOTEL BV,Zuid,WILLEMSPARKWEG,205,1071HB,52.3554459,4.8691676
BORGMANN VILLA HOTEL,Zuid,KONINGSLAAN,48,1075AE,52.3555703,4.8626538
HEEMSKERK HOTEL,Zuid,JAN WILLEM BROUWERSSTR,25,1071LH,52.3558249,4.8777944
HOTUSA OMEGA HOTEL,Zuid,JACOB OBRECHTSTRAAT,33,1071KG,52.3558429,4.8757244
MUSEUM QUARTER-NH,Zuid,HOBBEMAKADE,50,1071XL,52.3560923,4.8858229
TRIANON HOTEL VOF,Zuid,JAN WILLEM BROUWERSSTR,3-7,1071LH,52.356322,4.8783495
ANNEMARIE HOTEL,Zuid,JAN WILLEM BROUWERSSTR,14,1071LJ,52.356555,4.8782851
VERDI HOTEL,Zuid,WANNINGSTRAAT,9,1071LA,52.3567767,4.8775926
INNER HOTEL,Zuid,WANNINGSTRAAT,1,1071LA,52.356967,4.8775752
ATLAS HOTEL,Zuid,VAN EEGHENSTRAAT,64,1071GK,52.3575888,4.8737386
BELFORT HOTEL,Zuid,SURINAMEPLEIN,53,1058GN,52.3576031,4.850516
IBIS STYLES AMSTERDAM AMSTEL,Zuid,STADHOUDERSKADE,131,1074AW,52.3578501,4.9003102
SEASONS HOTEL,Zuid,STADHOUDERSKADE,135,1074AZ,52.3579237,4.9007678
MAX IN MOKUM HOTEL,Zuid,HEMONYSTRAAT,7,1074BK,52.3579495,4.9021821
SYMPHONY HOTEL VIVALDI,Zuid,STADHOUDERSKADE,76,1072AE,52.3579502,4.8905527
ROOMS & CO,Zuid,HEMONYSTRAAT,1A,1074BK,52.3581201,4.9021215
SYMPHONY HOTEL PAGANINI,Zuid,STADHOUDERSKADE,68,1072AD,52.3581692,4.8897563
GOLDEN REGAL HOTEL-THE,Zuid,KORTE VAN EEGHENSTRAAT,8,1071ER,52.3583852,4.8754309
CONSERVATORIUM HOTEL AMSTERDAM,Zuid,VAN BAERLESTRAAT,27,1071AN,52.358631,4.8786236
CITY GARDEN HOTEL,Zuid,P CORNELISZ HOOFTSTR,162,1071CH,52.3592137,4.8762641
HOTEL FITA,Zuid,JAN LUIJKENSTRAAT,37,1071CL,52.3592228,4.8797217
VINCENT VAN GOGH HOTEL,Zuid,VAN DE VELDESTRAAT,5,1071CW,52.3592489,4.8800695
ACCA INTERNATIONAL HOTEL,Zuid,VAN DE VELDESTRAAT,3A,1071CW,52.3595368,4.8798804
AALDERS HOTEL,Zuid,JAN LUIJKENSTRAAT,13-15,1071CJ,52.3595597,4.8810398
HOTEL JL. NO.76,Zuid,JAN LUIJKENSTRAAT,76,1071CT,52.3595919,4.8801587
BILDERBERG HOTEL JAN LUYKEN,Zuid,JAN LUIJKENSTRAAT,58,1071CS,52.3599196,4.8810128
The Poet Hotel,Zuid,JAN LUIJKENSTRAAT,40-44,1071CR,52.3601737,4.8821086
PIET HEIN HOTEL,Zuid,VOSSIUSSTRAAT,51-53,1071AK,52.3602209,4.8780375
BOUTIQUE HOTEL PATOU,Zuid,P CORNELISZ HOOFTSTR,63,1071BN,52.3603159,4.8813876
FLYING PIG UPTOWN HOSTEL-THE,Zuid,VOSSIUSSTRAAT,46,1071AJ,52.3603214,4.8784034
BELLINGTON HOTEL,Zuid,P CORNELISZ HOOFTSTR,78,1071CB,52.3603661,4.8805699
MUSEUMZICHT HOTEL,Zuid,JAN LUIJKENSTRAAT,22,1071CN,52.3604241,4.882987
ROBERTRAMON HOTEL,Zuid,P CORNELISZ HOOFTSTR,24-28,1071BX,52.3609996,4.8829718
REMISE-LA,Zuid,NOORDERSTRAAT,74,1071TW,52.3610155,4.8949708
WIJNNOBEL HOTEL,Zuid,VOSSIUSSTRAAT,9,1071AB,52.3611527,4.8815355
HOTEL VOSSIUS VONDELPARK,Zuid,VOSSIUSSTRAAT,8,1071AB,52.3611953,4.8816133
BEST WESTERN APOLLO MUSEUMHOTEL AMSTERDAM CITY CENTRE,Zuid,P CORNELISZ HOOFTSTR,2-10,1071BX,52.3612867,4.883885
PARK HOTEL,Zuid,STADHOUDERSKADE,25,1071ZD,52.3613814,4.8832594
SKOTEL,Zuid,DE KLENCKE,109,1083HH,52.3334481,4.8847559
MUSEUM SUITES,Zuid,WILLEMSPARKWEG,113,1071GV,52.3566512,4.8730808
FLETCHER HOTEL AMSTERDAM,Zuidoost,SCHEPENBERGWEG,50,1105AT,52.2925158,4.9446653
Reijgersbroeck Bed & Breakfast,Zuidoost,Provincialeweg,30,1108AB,52.3110959,4.9995348
CAMPANILE AMSTERDAM Z.O. HOTEL,Zuidoost,LOOSDRECHTDREEF,3,1108AX,52.3111715,4.9861569
Hampton by Hilton Amsterdam Arena Boulevard,Zuidoost,Hoekenrode,1,1102BR,52.3130554,4.9477433
AC TULIP INN AMSTERDAM RIVERSIDE,Zuidoost,PROVINCIALE WEG,38,1108AB,52.3154533,4.9962997
HOSTELLE,Zuidoost,FRANKEMAHEERD,2,1102AN,52.3156469,4.9510627
B&B Apostrophe,Zuidoost,Geerdinkhof,258,1103RA,52.3261297,4.982637
